     2.11           N: GPS NAV DATA                         RINEX VERSION / TYPE
teqc  2019Feb25                         20221121 12:28:12UTCPGM / RUN BY / DATE
OSX ker:10.11.6|Core i5|gcc 4.3 -m64|OSX ker:10.10+|=+      COMMENT
    1.1176D-08  0.0000D+00 -5.9605D-08  0.0000D+00          ION ALPHA
    9.0112D+04  0.0000D+00 -1.9661D+05  0.0000D+00          ION BETA
   -5.587935447693D-09-1.687538997430D-14   147456     1553 DELTA-UTC: A0,A1,T,W
                                                            END OF HEADER
 2 09 10 11  0  0  0.0 1.798374578357D-04 3.524291969370D-12 0.000000000000D+00
    6.100000000000D+01 8.625000000000D+00 5.341293914902D-09-1.235262558192D+00
    4.302710294724D-07 9.118404705077D-03 7.487833499908D-06 5.153714385986D+03
    0.000000000000D+00 4.470348358154D-08-2.915341428541D+00-1.266598701477D-07
    9.410793526010D-01 2.250937500000D+02 2.903174139919D+00-8.401421381495D-09
   -2.500104139373D-11 1.000000000000D+00 1.553000000000D+03 0.000000000000D+00
    2.000000000000D+00 0.000000000000D+00-1.722946763039D-08 6.100000000000D+01
   -3.012000000000D+03 4.000000000000D+00
 4 09 10 11  0  0  0.0-3.051492385566D-04-1.762145984685D-11 0.000000000000D+00
    4.200000000000D+01 1.259375000000D+01 5.389510209019D-09 1.598711499905D+00
    8.139759302139D-07 8.906428702176D-03 7.763504981995D-06 5.153548122406D+03
    0.000000000000D+00-1.359730958939D-07-2.897151392499D+00 1.862645149231D-07
    9.402595537902D-01 2.220000000000D+02 5.354309179783D-01-8.422136530078D-09
   -1.982225424788D-10 1.000000000000D+00 1.553000000000D+03 0.000000000000D+00
    2.000000000000D+00 0.000000000000D+00-6.053596735001D-09 4.200000000000D+01
   -3.012000000000D+03 4.000000000000D+00
12 09 10 11  0  0  0.0-2.062967978418D-04 5.456968210638D-12 0.000000000000D+00
    8.100000000000D+01-7.118750000000D+01 4.154458764169D-09-2.881209522147D+00
   -3.676861524582D-06 3.068705904298D-03 8.733943104744D-06 5.153557689667D+03
    0.000000000000D+00 2.235174179077D-08 1.294389274315D+00 4.656612873077D-08
    9.680163821107D-01 2.122187500000D+02-5.769718271125D-01-7.842469527478D-09
    1.942938074027D-10 1.000000000000D+00 1.553000000000D+03 0.000000000000D+00
    2.000000000000D+00 0.000000000000D+00-1.164153218269D-08 8.100000000000D+01
   -3.012000000000D+03 4.000000000000D+00
13 09 10 11  0  0  0.0 3.055292181671D-04 3.410605131648D-13 0.000000000000D+00
    7.300000000000D+01 6.900000000000D+01 3.814801758948D-09-6.193299135083D-01
    3.525987267494D-06 3.955250256695D-03 5.371868610382D-06 5.153645219803D+03
    0.000000000000D+00-5.774199962616D-08-7.443786499701D-01-2.048909664154D-08
    9.943248893485D-01 2.927500000000D+02 1.663584283214D+00-7.982832517017D-09
   -2.857261873569D-12 1.000000000000D+00 1.553000000000D+03 0.000000000000D+00
    2.000000000000D+00 0.000000000000D+00-1.117587089539D-08 7.300000000000D+01
   -3.012000000000D+03 4.000000000000D+00
20 09 10 11  0  0  0.0 7.027853280306D-05-9.094947017729D-13 0.000000000000D+00
    7.000000000000D+01 6.831250000000D+01 4.996993859137D-09 1.361036215913D+00
    3.455206751823D-06 3.880920936354D-03 9.201467037201D-06 5.153761680603D+03
    0.000000000000D+00-1.508742570877D-07-1.880788553684D+00-6.146728992462D-08
    9.399631592728D-01 1.895312500000D+02 1.311658538014D+00-8.244271978448D-09
   -3.278707999920D-10 1.000000000000D+00 1.553000000000D+03 0.000000000000D+00
    2.000000000000D+00 0.000000000000D+00-7.450580596924D-09 7.000000000000D+01
   -3.012000000000D+03 4.000000000000D+00
23 09 10 11  0  0  0.0 3.876490518451D-04-4.547473508865D-13 0.000000000000D+00
    4.800000000000D+01 7.312500000000D+01 4.302322066126D-09-1.330407560906D+00
    3.682449460030D-06 6.393174640834D-03 5.206093192101D-06 5.153769168854D+03
    0.000000000000D+00-3.911554813385D-08-7.996358102583D-01-1.117587089539D-07
    9.696327471302D-01 2.840000000000D+02 2.987989612664D+00-8.156768333570D-09
    6.500270762369D-11 1.000000000000D+00 1.553000000000D+03 0.000000000000D+00
    2.000000000000D+00 0.000000000000D+00-2.002343535423D-08 4.800000000000D+01
   -3.012000000000D+03 4.000000000000D+00
30 09 10 11  0  0  0.0 1.838579773903D-04 3.069544618484D-12 0.000000000000D+00
    7.600000000000D+01-7.209375000000D+01 4.591619830825D-09 8.859072507587D-01
   -3.935769200325D-06 1.194296125323D-02 8.644536137581D-06 5.153664613724D+03
    0.000000000000D+00-1.341104507446D-07 1.244421485984D+00-9.685754776001D-08
    9.531774671418D-01 2.102812500000D+02 1.460265422579D+00-8.267487231171D-09
    1.121475285376D-10 1.000000000000D+00 1.553000000000D+03 0.000000000000D+00
    2.800000000000D+00 0.000000000000D+00-7.916241884232D-09 7.600000000000D+01
   -3.012000000000D+03 4.000000000000D+00
31 09 10 11  0  0  0.0-6.311852484941D-05 6.821210263297D-13 0.000000000000D+00
    1.600000000000D+01-6.631250000000D+01 4.148029924953D-09-3.106954777960D+00
   -3.263354301453D-06 7.197655737400D-03 4.025176167488D-06 5.153537157059D+03
    0.000000000000D+00 2.048909664154D-08 2.402062580805D-01 4.470348358154D-08
    9.746287586627D-01 3.109062500000D+02-1.147516048615D+00-8.009262189347D-09
   -9.714690370134D-11 1.000000000000D+00 1.553000000000D+03 0.000000000000D+00
    2.000000000000D+00 0.000000000000D+00-1.303851604462D-08 1.600000000000D+01
   -3.012000000000D+03 4.000000000000D+00
29 09 10 11  0  0  0.0 6.492063403130D-05 3.296918293927D-12 0.000000000000D+00
    6.800000000000D+01-3.000000000000D+00 4.706624621236D-09 2.454333828741D+00
   -3.427267074585D-07 3.004463273101D-03 8.421018719673D-06 5.153589490891D+03
    0.000000000000D+00 2.235174179077D-08 2.362739180451D+00 4.097819328308D-08
    9.601930224535D-01 2.201875000000D+02-1.269546593437D+00-7.931401803292D-09
    3.485859485754D-10 1.000000000000D+00 1.553000000000D+03 0.000000000000D+00
    2.000000000000D+00 0.000000000000D+00-8.847564458847D-09 6.800000000000D+01
   -1.752000000000D+03 4.000000000000D+00
10 09 10 11  0  0  0.0-2.556107938290D-05-9.094947017729D-13 0.000000000000D+00
    1.400000000000D+01 5.506250000000D+01 4.711267671781D-09-1.442073354544D-01
    2.939254045486D-06 8.605687879026D-03 8.424744009972D-06 5.153383527756D+03
    0.000000000000D+00 2.048909664154D-08-1.830242599648D+00 1.154839992523D-07
    9.561939588707D-01 2.129375000000D+02 6.173289063640D-01-8.223913987599D-09
   -3.282279577262D-10 1.000000000000D+00 1.553000000000D+03 0.000000000000D+00
    2.000000000000D+00 0.000000000000D+00-2.793967723846D-09 1.400000000000D+01
   -1.482000000000D+03 4.000000000000D+00
 5 09 10 11  0  0  0.0-6.844848394394D-05 9.094947017729D-12 0.000000000000D+00
    9.400000000000D+01 5.556250000000D+01 4.532688804683D-09 1.316506619271D-01
    2.855435013771D-06 1.515175914392D-03 8.538365364075D-06 5.153574459076D+03
    0.000000000000D+00-1.303851604462D-08-1.857292540101D+00 2.980232238770D-08
    9.611260101619D-01 2.131562500000D+02 2.288622792726D-01-8.022119867778D-09
   -3.328710082708D-10 1.000000000000D+00 1.553000000000D+03 0.000000000000D+00
    2.000000000000D+00 0.000000000000D+00-9.313225746155D-09 9.400000000000D+01
   -5.820000000000D+02 4.000000000000D+00
